ORBCOMM-X [-]           
1 21576U 91050C   24023.75339461  .00000600  00000+0  19492-3 0  9998
2 21576  98.4095  93.2237 0002614 295.2816  64.8102 14.42338560708518
ORBCOMM FM01 [-]        
1 23545U 95017A   24023.89799706  .00005914  00000+0  82577-3 0  9997
2 23545  69.9672 254.0759 0005006 337.8050  22.2881 14.78130633536811
ORBCOMM FM02 [-]        
1 23546U 95017B   24023.89737853  .00006781  00000+0  95256-3 0  9994
2 23546  69.9699 273.3093 0007256 339.9521  20.1341 14.77784024536468
ORBCOMM FM08 [-]        
1 25112U 97084A   24023.81735090  .00002406  00000+0  77121-3 0  9995
2 25112  45.0150 290.0503 0006442 195.1207 164.9451 14.41891532367619
ORBCOMM FM10 [-]        
1 25113U 97084B   24023.81844201  .00002279  00000+0  73407-3 0  9992
2 25113  45.0163 291.8238 0004039 161.3201 198.7797 14.41819595542765
ORBCOMM FM11 [+]        
1 25114U 97084C   24023.62057118  .00002695  00000+0  86216-3 0  9999
2 25114  45.0146 292.7532 0004790 160.0729 200.0309 14.41702560367707
ORBCOMM FM12 [-]        
1 25115U 97084D   24023.85529305  .00002352  00000+0  75828-3 0  9994
2 25115  45.0157 291.2975 0003781 162.5832 197.5148 14.41683882367533
ORBCOMM FM09 [-]        
1 25116U 97084E   24023.86411396  .00002148  00000+0  69672-3 0  9999
2 25116  45.0161 291.9116 0005006 145.6539 214.4635 14.41651665367748
